COMMENT,ORIGINATOR,NORAD_CAT_ID,OBJECT_NAME,OBJECT_TYPE,CLASSIFICATION_TYPE,INTLDES,EPOCH,EPOCH_MICROSECONDS,MEAN_MOTION,ECCENTRICITY,INCLINATION,RA_OF_ASC_NODE,ARG_OF_PERICENTER,MEAN_ANOMALY,EPHEMERIS_TYPE,ELEMENT_SET_NO,REV_AT_EPOCH,BSTAR,MEAN_MOTION_DOT,MEAN_MOTION_DDOT,FILE,TLE_LINE0,TLE_LINE1,TLE_LINE2,OBJECT_ID,OBJECT_NUMBER,SEMIMAJOR_AXIS,PERIOD,APOGEE,PERIGEE
"GENERATED VIA SPACETRACK.ORG API","JSPOC","28512","SL-12 R/B(2)","ROCKET BODY","U","04053E","2016-01-12 04:35:20","200128","2.13315452","0.0016826","63.1379","195.4038","220.3864","181.1103","0","999","8603","0","9e-07","0","1979204","0 SL-12 R/B(2)","1 28512U 04053E   16012.19120602  .00000090  00000-0  00000+0 0  9999","2 28512  63.1379 195.4038 0016826 220.3864 181.1103  2.13315452 86035","2004-053E","28512","25491.005","675.056","19155.761","19069.979"
"GENERATED VIA SPACETRACK.ORG API","JSPOC","7272","COSMOS 648","PAYLOAD","U","74024H","2016-01-12 04:35:25","148256","12.50323141","0.0033892","74.0201","320.5603","290.0413","177.0784","0","999","90449","6.0809e-05","-7e-08","0","1979260","0 COSMOS 648","1 07272U 74024H   16012.19126329 -.00000007  00000-0  60809-4 0  9993","2 07272  74.0201 320.5603 0033892 290.0413 177.0784 12.50323141904499","1974-024H","7272","7841.280","115.170","1489.721","1436.569"
"GENERATED VIA SPACETRACK.ORG API","JSPOC","11135","COSMOS 1058","PAYLOAD","U","78109H","2016-01-12 04:35:36","705984","12.39456631","0.0035636","74.0186","328.1393","91.1366","32.1941","0","999","67895","-8.5751e-06","-1.6e-07","0","1979314","0 COSMOS 1058","1 11135U 78109H   16012.19139706 -.00000016  00000-0 -85751-5 0  9992","2 11135  74.0186 328.1393 0035636  91.1366  32.1941 12.39456631678952","1978-109H","11135","7887.044","116.179","1537.015","1480.803"
"GENERATED VIA SPACETRACK.ORG API","JSPOC","22802","COSMOS 2263","PAYLOAD","U","93059A","2016-01-12 04:35:39","978816","14.13108223","0.0025814","70.9247","338.2742","292.7668","155.9106","0","999","15139","-0.00011247","-2.59e-06","0","1979206","0 COSMOS 2263","1 22802U 93059A   16012.19143494 -.00000259  00000-0 -11247-3 0  9991","2 22802  70.9247 338.2742 0025814 292.7668 155.9106 14.13108223151395","1993-059A","22802","7226.891","101.903","867.412","830.101"
"GENERATED VIA SPACETRACK.ORG API","JSPOC","22824","STELLA","PAYLOAD","U","93061B","2016-01-12 04:35:41","635104","14.27360249","0.0007338","98.7473","320.7541","120.4975","353.1068","0","999","16154","4.3705e-06","-3.4e-07","0","1979277","0 STELLA","1 22824U 93061B   16012.19145411 -.00000034  00000-0  43705-5 0  9995","2 22824  98.7473 320.7541 0007338 120.4975 353.1068 14.27360249161540","1993-061B","22824","7178.705","100.885","805.837","795.302"
"GENERATED VIA SPACETRACK.ORG API","JSPOC","4257","TIMATION 2","PAYLOAD","U","69082C","2016-01-12 04:35:56","531328","13.95708201","0.0018382","70.0161","307.8585","42.3688","59.445","0","999","35551","5.2996e-05","2e-07","0","1979338","0 TIMATION 2","1 04257U 69082C   16012.19162652  .00000020  00000-0  52996-4 0  9992","2 04257  70.0161 307.8585 0018382  42.3688  59.4450 13.95708201355516","1969-082C","4257","7286.831","103.173","922.091","895.302"
"GENERATED VIA SPACETRACK.ORG API","JSPOC","14884","COSMOS 1547","PAYLOAD","U","84033A","2016-01-12 04:36:05","835744","2.00809452","0.6269971","69.1435","195.8346","35.4616","197.4441","0","999","17308","0","-6.57e-06","0","1979290","0 COSMOS 1547","1 14884U 84033A   16012.19173421 -.00000657  00000-0  00000+0 0  9999","2 14884  69.1435 195.8346 6269971  35.4616 197.4441  2.00809452173085","1984-033A","14884","26538.665","717.097","36800.196","3520.864"
"GENERATED VIA SPACETRACK.ORG API","JSPOC","40336","CBERS-4","PAYLOAD","U","14079A","2016-01-12 04:36:08","769024","14.35445895","0.000115","98.5078","89.746","108.6942","251.4377","0","999","5752","2.7563e-05","3.6e-07","0","1979340","0 CBERS-4","1 40336U 14079A   16012.19176816  .00000036  00000-0  27563-4 0  9992","2 40336  98.5078  89.7460 0001150 108.6942 251.4377 14.35445895 57522","2014-079A","40336","7151.721","100.317","774.409","772.764"
"GENERATED VIA SPACETRACK.ORG API","JSPOC","25068","EQUATOR S","PAYLOAD","U","97075B","2016-01-12 04:36:10","808064","1.07731807","0.8230118","4.4465","140.1319","229.2597","23.5647","0","999","7137","-4.2345e-05","-9.2e-07","0","1979697","0 EQUATOR S","1 25068U 97075B   16012.19179176 -.00000092  00000-0 -42345-4 0  9995","2 25068   4.4465 140.1319 8230118 229.2597  23.5647  1.07731807 71373","1997-075B","25068","40195.047","1336.652","66897.910","735.914"
"GENERATED VIA SPACETRACK.ORG API","JSPOC","25068","EQUATOR S","PAYLOAD","U","97075B","2016-01-12 04:36:10","808064","1.07731807","0.8230118","4.4465","140.1319","229.2597","23.5647","0","999","7139","-4.2345e-05","-9.2e-07","0","1979855","0 EQUATOR S","1 25068U 97075B   16012.19179176 -.00000092 +00000-0 -42345-4 0  9995","2 25068 004.4465 140.1319 8230118 229.2597 023.5647 01.07731807071395","1997-075B","25068","40195.047","1336.652","66897.910","735.914"
"GENERATED VIA SPACETRACK.ORG API","JSPOC","18334","COSMOS 1875","PAYLOAD","U","87074A","2016-01-12 04:36:18","520992","12.66245468","0.0014127","82.5666","189.5887","159.617","289.5961","0","999","31016","1.1559e-06","1.1e-07","0","1979243","0 COSMOS 1875","1 18334U 87074A   16012.19188103  .00000011  00000-0  11559-5 0  9994","2 18334  82.5666 189.5887 0014127 159.6170 289.5961 12.66245468310169","1987-074A","18334","7775.408","113.722","1408.258","1386.289"
"GENERATED VIA SPACETRACK.ORG API","JSPOC","26384","NADEZHDA 6","PAYLOAD","U","00033A","2016-01-12 04:36:25","116768","14.66149323","0.0014286","98.0792","82.1296","239.8015","120.178","0","999","83031","5.2538e-05","2.41e-06","0","1979204","0 NADEZHDA 6","1 26384U 00033A   16012.19195737  .00000241  00000-0  52538-4 0  9995","2 26384  98.0792  82.1296 0014286 239.8015 120.1780 14.66149323830310","2000-033A","26384","7051.524","98.216","683.463","663.316"
"GENERATED VIA SPACETRACK.ORG API","JSPOC","40032","QB50P2","PAYLOAD","U","14033Y","2016-01-12 04:36:29","613024","14.87272915","0.0011269","97.9385","277.2065","207.6881","152.3736","0","999","8483","0.00012142","1.04e-05","0","1979301","0 QB50P2","1 40032U 14033Y   16012.19200941  .00001040  00000-0  12142-3 0  9994","2 40032  97.9385 277.2065 0011269 207.6881 152.3736 14.87272915 84838","2014-033Y","40032","6984.597","96.821","614.333","598.591"
"GENERATED VIA SPACETRACK.ORG API","JSPOC","4321","OSCAR 5","PAYLOAD","U","70008B","2016-01-12 04:36:36","823968","12.5217045","0.002804","101.8224","78.1964","93.8461","286.4734","0","999","10115","9.7258e-05","-3e-07","0","1979224","0 OSCAR 5","1 04321U 70008B   16012.19209287 -.00000030  00000-0  97258-4 0  9992","2 04321 101.8224  78.1964 0028040  93.8461 286.4734 12.52170450101159","1970-008B","4321","7833.566","115.000","1477.396","1433.466"
"GENERATED VIA SPACETRACK.ORG API","JSPOC","26619","EO 1","PAYLOAD","U","00075A","2016-01-12 04:36:48","544992","14.64183434","0.0008968","97.9014","58.3716","327.7101","32.354","0","999","80714","6.6484e-05","3.05e-06","0","1979340","0 EO 1","1 26619U 00075A   16012.19222853  .00000305  00000-0  66484-4 0  9998","2 26619  97.9014  58.3716 0008968 327.7101  32.3540 14.64183434807143","2000-075A","26619","7057.835","98.348","686.029","673.370"
"GENERATED VIA SPACETRACK.ORG API","JSPOC","39766","ALOS 2","PAYLOAD","U","14029A","2016-01-12 04:36:56","981088","14.7947748","0.0001343","97.9201","111.0319","93.5944","266.5464","0","999","8842","8.5032e-05","5.84e-06","0","1979340","0 ALOS 2","1 39766U 14029A   16012.19232617  .00000584  00000-0  85032-4 0  9997","2 39766  97.9201 111.0319 0001343  93.5944 266.5464 14.79477480 88428","2014-029A","39766","7009.110","97.331","631.917","630.034"
"GENERATED VIA SPACETRACK.ORG API","JSPOC","40882","INMARSAT 5-F3","PAYLOAD","U","15042A","2016-01-12 04:37:00","329952","1.00269266","1.27e-05","0.0157","54.7559","133.1565","172.0788","0","999","136","0","5e-07","0","1979513","0 INMARSAT 5-F3","1 40882U 15042A   16012.19236493  .00000050  00000-0  00000+0 0  9995","2 40882   0.0157  54.7559 0000127 133.1565 172.0788  1.00269266  1361","2015-042A","40882","42165.438","1436.132","35787.838","35786.767"
"GENERATED VIA SPACETRACK.ORG API","JSPOC","40899","OBJECT A","TBA","U","15049A","2016-01-12 04:37:19","736256","15.1400362","0.0014397","97.4534","22.9189","236.266","252.3951","0","999","1729","0.00010635","1.869e-05","0","1979207","0 OBJECT A","1 40899U 15049A   16012.19258954  .00001869  00000-0  10635-3 0  9994","2 40899  97.4534  22.9189 0014397 236.2660 252.3951 15.14003620 17292","2015-049A","40899","6902.142","95.112","533.944","514.070"
"GENERATED VIA SPACETRACK.ORG API","JSPOC","36796","STUDSAT","PAYLOAD","U","10035B","2016-01-12 04:37:19","587648","14.86392486","0.0011964","98.0056","114.8015","245.0361","114.9612","0","999","29778","0.00013084","1.099e-05","0","1979331","0 STUDSAT","1 36796U 10035B   16012.19258782  .00001099  00000-0  13084-3 0  9990","2 36796  98.0056 114.8015 0011964 245.0361 114.9612 14.86392486297781","2010-035B","36796","6987.355","96.878","617.580","600.860"
"GENERATED VIA SPACETRACK.ORG API","JSPOC","32959","CZ-4B R/B","ROCKET BODY","U","08026B","2016-01-12 04:37:40","427328","14.41603829","0.0071346","98.9329","232.7107","64.7658","44.2988","0","999","40125","2.5646e-05","3.7e-07","0","1979317","0 CZ-4B R/B","1 32959U 08026B   16012.19282902  .00000037  00000-0  25646-4 0  9994","2 32959  98.9329 232.7107 0071346  64.7658  44.2988 14.41603829401254","2008-026B","32959","7131.341","99.888","804.085","702.327"
"GENERATED VIA SPACETRACK.ORG API","JSPOC","22489","OXP 1","PAYLOAD","U","93009A","2016-01-12 04:37:48","249120","14.44753885","0.0040874","24.9654","284.9375","222.9558","293.2615","0","999","20996","3.4689e-05","3.08e-06","0","1979293","0 OXP 1","1 22489U 93009A   16012.19291955  .00000308  00000-0  34689-4 0  9992","2 22489  24.9654 284.9375 0040874 222.9558 293.2615 14.44753885209964","1993-009A","22489","7120.971","99.670","771.942","713.730"
